{
  "type": "FeatureCollection",
  "columns": {
    "count": "Long<0, 4294967295>",
    "label": "Byte<0, 1>",
    "system:index": "String"
  },
  "features": [
    {
      "type": "Feature",
      "geometry": {
        "geodesic": false,
        "type": "Polygon",
        "coordinates": [
          [
            [
              84.00406733234038,
              27.549083975735435
            ],
            [
              84.00676227819278,
              27.549083975735435
            ],
            [
              84.00676227819278,
              27.55088060630367
            ],
            [
              84.00406733234038,
              27.55088060630367
            ],
            [
              84.00406733234038,
              27.549083975735435
            ]
          ]
        ]
      },
      "id": "+293890+62840",
      "properties": {
        "count": 6,
        "label": 1,
        "segment": "Nepal",
        "sensor": "Sentinel-1 C-SAR GRD",
        "method": "VV/VH change detection with JRC water mask",
        "threshold_VV_dB": 3.0,
        "terrain_note": "Himalayan gorge reach; subject to radar layover/shadow"
      }
    },
    {
      "type": "Feature",
      "geometry": {
        "geodesic": false,
        "type": "Polygon",
        "coordinates": [
          [
            [
              84.02652521444341,
              27.557168813292506
            ],
            [
              84.03101679086402,
              27.557168813292506
            ],
            [
              84.03101679086402,
              27.55806712857663
            ],
            [
              84.02652521444341,
              27.55806712857663
            ],
            [
              84.02652521444341,
              27.557168813292506
            ]
          ]
        ]
      },
      "id": "+293917+62831",
      "properties": {
        "count": 5,
        "label": 1,
        "segment": "Nepal",
        "sensor": "Sentinel-1 C-SAR GRD",
        "method": "VV/VH change detection with JRC water mask",
        "threshold_VV_dB": 3.0,
        "terrain_note": "Himalayan gorge reach; subject to radar layover/shadow"
      }
    },
    {
      "type": "Feature",
      "geometry": {
        "geodesic": false,
        "type": "Polygon",
        "coordinates": [
          [
            [
              84.0453898354099,
              27.544592399314837
            ],
            [
              84.04628815069404,
              27.544592399314837
            ],
            [
              84.04628815069404,
              27.545490714598955
            ],
            [
              84.04898309654638,
              27.545490714598955
            ],
            [
              84.04898309654638,
              27.546389029883073
            ],
            [
              84.04628815069404,
              27.546389029883073
            ],
            [
              84.04628815069404,
              27.545490714598955
            ],
            [
              84.0453898354099,
              27.545490714598955
            ],
            [
              84.0453898354099,
              27.544592399314837
            ]
          ]
        ]
      },
      "id": "+293934+62845",
      "properties": {
        "count": 4,
        "label": 1,
        "segment": "Nepal",
        "sensor": "Sentinel-1 C-SAR GRD",
        "method": "VV/VH change detection with JRC water mask",
        "threshold_VV_dB": 3.0,
        "terrain_note": "Himalayan gorge reach; subject to radar layover/shadow"
      }
    },
    {
      "type": "Feature",
      "geometry": {
        "geodesic": false,
        "type": "Polygon",
        "coordinates": [
          [
            [
              84.06066119523993,
              27.55447386744015
            ],
            [
              84.06155951052406,
              27.55447386744015
            ],
            [
              84.06155951052406,
              27.55537218272427
            ],
            [
              84.0624578258082,
              27.55537218272427
            ],
            [
              84.0624578258082,
              27.556270498008388
            ],
            [
              84.06335614109227,
              27.556270498008388
            ],
            [
              84.06335614109227,
              27.557168813292506
            ],
            [
              84.0624578258082,
              27.557168813292506
            ],
            [
              84.0624578258082,
              27.55806712857663
            ],
            [
              84.06155951052406,
              27.55806712857663
            ],
            [
              84.06155951052406,
              27.557168813292506
            ],
            [
              84.0624578258082,
              27.557168813292506
            ],
            [
              84.0624578258082,
              27.556270498008388
            ],
            [
              84.06155951052406,
              27.556270498008388
            ],
            [
              84.06155951052406,
              27.55537218272427
            ],
            [
              84.06066119523993,
              27.55537218272427
            ],
            [
              84.06066119523993,
              27.55447386744015
            ]
          ]
        ]
      },
      "id": "+293951+62834",
      "properties": {
        "count": 4,
        "label": 1,
        "segment": "Nepal",
        "sensor": "Sentinel-1 C-SAR GRD",
        "method": "VV/VH change detection with JRC water mask",
        "threshold_VV_dB": 3.0,
        "terrain_note": "Himalayan gorge reach; subject to radar layover/shadow"
      }
    },
    {
      "type": "Feature",
      "geometry": {
        "geodesic": false,
        "type": "Polygon",
        "coordinates": [
          [
            [
              84.0669494022288,
              27.55177892158779
            ],
            [
              84.06874603279701,
              27.55177892158779
            ],
            [
              84.06874603279701,
              27.552677236871908
            ],
            [
              84.06964434808114,
              27.552677236871908
            ],
            [
              84.06964434808114,
              27.553575552156033
            ],
            [
              84.06784771751288,
              27.553575552156033
            ],
            [
              84.06784771751288,
              27.55447386744015
            ],
            [
              84.0669494022288,
              27.55447386744015
            ],
            [
              84.0669494022288,
              27.553575552156033
            ],
            [
              84.06784771751288,
              27.553575552156033
            ],
            [
              84.06784771751288,
              27.552677236871908
            ],
            [
              84.0669494022288,
              27.552677236871908
            ],
            [
              84.0669494022288,
              27.55177892158779
            ]
          ]
        ]
      },
      "id": "+293959+62837",
      "properties": {
        "count": 5,
        "label": 1,
        "segment": "Nepal",
        "sensor": "Sentinel-1 C-SAR GRD",
        "method": "VV/VH change detection with JRC water mask",
        "threshold_VV_dB": 3.0,
        "terrain_note": "Himalayan gorge reach; subject to radar layover/shadow"
      }
    },
    {
      "type": "Feature",
      "geometry": {
        "geodesic": false,
        "type": "Polygon",
        "coordinates": [
          [
            [
              84.07144097864935,
              27.549083975735435
            ],
            [
              84.07233929393348,
              27.549083975735435
            ],
            [
              84.07233929393348,
              27.549982291019553
            ],
            [
              84.07323760921761,
              27.549982291019553
            ],
            [
              84.07323760921761,
              27.55088060630367
            ],
            [
              84.07413592450175,
              27.55088060630367
            ],
            [
              84.07413592450175,
              27.55177892158779
            ],
            [
              84.07323760921761,
              27.55177892158779
            ],
            [
              84.07323760921761,
              27.552677236871908
            ],
            [
              84.07233929393348,
              27.552677236871908
            ],
            [
              84.07233929393348,
              27.549982291019553
            ],
            [
              84.07144097864935,
              27.549982291019553
            ],
            [
              84.07144097864935,
              27.549083975735435
            ]
          ]
        ]
      },
      "id": "+293963+62840",
      "properties": {
        "count": 5,
        "label": 1,
        "segment": "Nepal",
        "sensor": "Sentinel-1 C-SAR GRD",
        "method": "VV/VH change detection with JRC water mask",
        "threshold_VV_dB": 3.0,
        "terrain_note": "Himalayan gorge reach; subject to radar layover/shadow"
      }
    },
    {
      "type": "Feature",
      "geometry": {
        "geodesic": false,
        "type": "Polygon",
        "coordinates": [
          [
            [
              84.07503423978582,
              27.556270498008388
            ],
            [
              84.07683087035409,
              27.556270498008388
            ],
            [
              84.07683087035409,
              27.557168813292506
            ],
            [
              84.07503423978582,
              27.557168813292506
            ],
            [
              84.07503423978582,
              27.55806712857663
            ],
            [
              84.07413592450175,
              27.55806712857663
            ],
            [
              84.07413592450175,
              27.55896544386075
            ],
            [
              84.07233929393348,
              27.55896544386075
            ],
            [
              84.07233929393348,
              27.55806712857663
            ],
            [
              84.07413592450175,
              27.55806712857663
            ],
            [
              84.07413592450175,
              27.557168813292506
            ],
            [
              84.07503423978582,
              27.557168813292506
            ],
            [
              84.07503423978582,
              27.556270498008388
            ]
          ]
        ]
      },
      "id": "+293968+62832",
      "properties": {
        "count": 5,
        "label": 1,
        "segment": "Nepal",
        "sensor": "Sentinel-1 C-SAR GRD",
        "method": "VV/VH change detection with JRC water mask",
        "threshold_VV_dB": 3.0,
        "terrain_note": "Himalayan gorge reach; subject to radar layover/shadow"
      }
    },
    {
      "type": "Feature",
      "geometry": {
        "geodesic": false,
        "type": "Polygon",
        "coordinates": [
          [
            [
              84.08401739262703,
              27.55806712857663
            ],
            [
              84.0876106537635,
              27.55806712857663
            ],
            [
              84.0876106537635,
              27.55896544386075
            ],
            [
              84.08401739262703,
              27.55896544386075
            ],
            [
              84.08401739262703,
              27.55806712857663
            ]
          ]
        ]
      },
      "id": "+293980+62830",
      "properties": {
        "count": 4,
        "label": 1,
        "segment": "Nepal",
        "sensor": "Sentinel-1 C-SAR GRD",
        "method": "VV/VH change detection with JRC water mask",
        "threshold_VV_dB": 3.0,
        "terrain_note": "Himalayan gorge reach; subject to radar layover/shadow"
      }
    },
    {
      "type": "Feature",
      "geometry": {
        "geodesic": false,
        "type": "Polygon",
        "coordinates": [
          [
            [
              84.11545842757121,
              27.545490714598955
            ],
            [
              84.11905168870769,
              27.545490714598955
            ],
            [
              84.11905168870769,
              27.546389029883073
            ],
            [
              84.11545842757121,
              27.546389029883073
            ],
            [
              84.11545842757121,
              27.545490714598955
            ]
          ]
        ]
      },
      "id": "+294015+62844",
      "properties": {
        "count": 4,
        "label": 1,
        "segment": "Nepal",
        "sensor": "Sentinel-1 C-SAR GRD",
        "method": "VV/VH change detection with JRC water mask",
        "threshold_VV_dB": 3.0,
        "terrain_note": "Himalayan gorge reach; subject to radar layover/shadow"
      }
    },
    {
      "type": "Feature",
      "geometry": {
        "geodesic": false,
        "type": "Polygon",
        "coordinates": [
          [
            [
              84.11905168870769,
              27.549083975735435
            ],
            [
              84.12084831927595,
              27.549083975735435
            ],
            [
              84.12084831927595,
              27.549982291019553
            ],
            [
              84.12174663456008,
              27.549982291019553
            ],
            [
              84.12174663456008,
              27.55088060630367
            ],
            [
              84.11995000399182,
              27.55088060630367
            ],
            [
              84.11995000399182,
              27.549982291019553
            ],
            [
              84.11905168870769,
              27.549982291019553
            ],
            [
              84.11905168870769,
              27.549083975735435
            ]
          ]
        ]
      },
      "id": "+294017+62840",
      "properties": {
        "count": 4,
        "label": 1,
        "segment": "Nepal",
        "sensor": "Sentinel-1 C-SAR GRD",
        "method": "VV/VH change detection with JRC water mask",
        "threshold_VV_dB": 3.0,
        "terrain_note": "Himalayan gorge reach; subject to radar layover/shadow"
      }
    },
    {
      "type": "Feature",
      "geometry": {
        "geodesic": false,
        "type": "Polygon",
        "coordinates": [
          [
            [
              84.1280348415489,
              27.553575552156033
            ],
            [
              84.13162810268537,
              27.553575552156033
            ],
            [
              84.13162810268537,
              27.55537218272427
            ],
            [
              84.12983147211716,
              27.55537218272427
            ],
            [
              84.12983147211716,
              27.556270498008388
            ],
            [
              84.12893315683303,
              27.556270498008388
            ],
            [
              84.12893315683303,
              27.557168813292506
            ],
            [
              84.1280348415489,
              27.557168813292506
            ],
            [
              84.1280348415489,
              27.556270498008388
            ],
            [
              84.12713652626476,
              27.556270498008388
            ],
            [
              84.12713652626476,
              27.55537218272427
            ],
            [
              84.12983147211716,
              27.55537218272427
            ],
            [
              84.12983147211716,
              27.55447386744015
            ],
            [
              84.1280348415489,
              27.55447386744015
            ],
            [
              84.1280348415489,
              27.553575552156033
            ]
          ]
        ]
      },
      "id": "+294029+62835",
      "properties": {
        "count": 10,
        "label": 1,
        "segment": "Nepal",
        "sensor": "Sentinel-1 C-SAR GRD",
        "method": "VV/VH change detection with JRC water mask",
        "threshold_VV_dB": 3.0,
        "terrain_note": "Himalayan gorge reach; subject to radar layover/shadow"
      }
    },
    {
      "type": "Feature",
      "geometry": {
        "geodesic": false,
        "type": "Polygon",
        "coordinates": [
          [
            [
              84.14061125552658,
              27.55088060630367
            ],
            [
              84.14150957081071,
              27.55088060630367
            ],
            [
              84.14150957081071,
              27.55177892158779
            ],
            [
              84.14240788609479,
              27.55177892158779
            ],
            [
              84.14240788609479,
              27.553575552156033
            ],
            [
              84.14330620137892,
              27.553575552156033
            ],
            [
              84.14330620137892,
              27.55447386744015
            ],
            [
              84.14240788609479,
              27.55447386744015
            ],
            [
              84.14240788609479,
              27.553575552156033
            ],
            [
              84.14150957081071,
              27.553575552156033
            ],
            [
              84.14150957081071,
              27.55447386744015
            ],
            [
              84.14061125552658,
              27.55447386744015
            ],
            [
              84.14061125552658,
              27.553575552156033
            ],
            [
              84.14150957081071,
              27.553575552156033
            ],
            [
              84.14150957081071,
              27.552677236871908
            ],
            [
              84.14061125552658,
              27.552677236871908
            ],
            [
              84.14061125552658,
              27.55088060630367
            ]
          ]
        ]
      },
      "id": "+294040+62838",
      "properties": {
        "count": 6,
        "label": 1,
        "segment": "Nepal",
        "sensor": "Sentinel-1 C-SAR GRD",
        "method": "VV/VH change detection with JRC water mask",
        "threshold_VV_dB": 3.0,
        "terrain_note": "Himalayan gorge reach; subject to radar layover/shadow"
      }
    },
    {
      "type": "Feature",
      "geometry": {
        "geodesic": false,
        "type": "Polygon",
        "coordinates": [
          [
            [
              84.14959440836779,
              27.55896544386075
            ],
            [
              84.151391038936,
              27.55896544386075
            ],
            [
              84.151391038936,
              27.559863759144868
            ],
            [
              84.15228935422013,
              27.559863759144868
            ],
            [
              84.15228935422013,
              27.560762074428986
            ],
            [
              84.151391038936,
              27.560762074428986
            ],
            [
              84.151391038936,
              27.561660389713104
            ],
            [
              84.15049272365187,
              27.561660389713104
            ],
            [
              84.15049272365187,
              27.560762074428986
            ],
            [
              84.151391038936,
              27.560762074428986
            ],
            [
              84.151391038936,
              27.559863759144868
            ],
            [
              84.14959440836779,
              27.559863759144868
            ],
            [
              84.14959440836779,
              27.55896544386075
            ]
          ]
        ]
      },
      "id": "+294051+62829",
      "properties": {
        "count": 4,
        "label": 1,
        "segment": "Nepal",
        "sensor": "Sentinel-1 C-SAR GRD",
        "method": "VV/VH change detection with JRC water mask",
        "threshold_VV_dB": 3.0,
        "terrain_note": "Himalayan gorge reach; subject to radar layover/shadow"
      }
    },
    {
      "type": "Feature",
      "geometry": {
        "geodesic": false,
        "type": "Polygon",
        "coordinates": [
          [
            [
              84.15857756120894,
              27.587711532952575
            ],
            [
              84.15947587649308,
              27.587711532952575
            ],
            [
              84.15947587649308,
              27.58950816352081
            ],
            [
              84.16037419177721,
              27.58950816352081
            ],
            [
              84.16037419177721,
              27.59040647880493
            ],
            [
              84.16127250706134,
              27.59040647880493
            ],
            [
              84.16127250706134,
              27.591304794089048
            ],
            [
              84.16037419177721,
              27.591304794089048
            ],
            [
              84.16037419177721,
              27.59040647880493
            ],
            [
              84.15947587649308,
              27.59040647880493
            ],
            [
              84.15947587649308,
              27.58950816352081
            ],
            [
              84.15857756120894,
              27.58950816352081
            ],
            [
              84.15857756120894,
              27.587711532952575
            ]
          ]
        ]
      },
      "id": "+294060+62797",
      "properties": {
        "count": 4,
        "label": 1,
        "segment": "Nepal",
        "sensor": "Sentinel-1 C-SAR GRD",
        "method": "VV/VH change detection with JRC water mask",
        "threshold_VV_dB": 3.0,
        "terrain_note": "Himalayan gorge reach; subject to radar layover/shadow"
      }
    },
    {
      "type": "Feature",
      "geometry": {
        "geodesic": false,
        "type": "Polygon",
        "coordinates": [
          [
            [
              84.16127250706134,
              27.57154185783842
            ],
            [
              84.16217082234542,
              27.57154185783842
            ],
            [
              84.16217082234542,
              27.572440173122544
            ],
            [
              84.16306913762955,
              27.572440173122544
            ],
            [
              84.16306913762955,
              27.573338488406662
            ],
            [
              84.16396745291368,
              27.573338488406662
            ],
            [
              84.16396745291368,
              27.57423680369078
            ],
            [
              84.16217082234542,
              27.57423680369078
            ],
            [
              84.16217082234542,
              27.573338488406662
            ],
            [
              84.16127250706134,
              27.573338488406662
            ],
            [
              84.16127250706134,
              27.57154185783842
            ]
          ]
        ]
      },
      "id": "+294063+62815",
      "properties": {
        "count": 5,
        "label": 1,
        "segment": "Nepal",
        "sensor": "Sentinel-1 C-SAR GRD",
        "method": "VV/VH change detection with JRC water mask",
        "threshold_VV_dB": 3.0,
        "terrain_note": "Himalayan gorge reach; subject to radar layover/shadow"
      }
    },
    {
      "type": "Feature",
      "geometry": {
        "geodesic": false,
        "type": "Polygon",
        "coordinates": [
          [
            [
              84.16486576819781,
              27.59399973994141
            ],
            [
              84.16576408348195,
              27.59399973994141
            ],
            [
              84.16576408348195,
              27.594898055225528
            ],
            [
              84.16756071405015,
              27.594898055225528
            ],
            [
              84.16756071405015,
              27.59669468579377
            ],
            [
              84.16576408348195,
              27.59669468579377
            ],
            [
              84.16576408348195,
              27.594898055225528
            ],
            [
              84.16486576819781,
              27.594898055225528
            ],
            [
              84.16486576819781,
              27.59399973994141
            ]
          ]
        ]
      },
      "id": "+294067+62790",
      "properties": {
        "count": 5,
        "label": 1,
        "segment": "Nepal",
        "sensor": "Sentinel-1 C-SAR GRD",
        "method": "VV/VH change detection with JRC water mask",
        "threshold_VV_dB": 3.0,
        "terrain_note": "Himalayan gorge reach; subject to radar layover/shadow"
      }
    },
    {
      "type": "Feature",
      "geometry": {
        "geodesic": false,
        "type": "Polygon",
        "coordinates": [
          [
            [
              84.16486576819781,
              27.57154185783842
            ],
            [
              84.16666239876602,
              27.57154185783842
            ],
            [
              84.16666239876602,
              27.572440173122544
            ],
            [
              84.16845902933429,
              27.572440173122544
            ],
            [
              84.16845902933429,
              27.573338488406662
            ],
            [
              84.16935734461842,
              27.573338488406662
            ],
            [
              84.16935734461842,
              27.57423680369078
            ],
            [
              84.1702556599025,
              27.57423680369078
            ],
            [
              84.1702556599025,
              27.5751351189749
            ],
            [
              84.16845902933429,
              27.5751351189749
            ],
            [
              84.16845902933429,
              27.57423680369078
            ],
            [
              84.16666239876602,
              27.57423680369078
            ],
            [
              84.16666239876602,
              27.572440173122544
            ],
            [
              84.16486576819781,
              27.572440173122544
            ],
            [
              84.16486576819781,
              27.57154185783842
            ]
          ]
        ]
      },
      "id": "+294068+62815",
      "properties": {
        "count": 9,
        "label": 1,
        "segment": "Nepal",
        "sensor": "Sentinel-1 C-SAR GRD",
        "method": "VV/VH change detection with JRC water mask",
        "threshold_VV_dB": 3.0,
        "terrain_note": "Himalayan gorge reach; subject to radar layover/shadow"
      }
    },
    {
      "type": "Feature",
      "geometry": {
        "geodesic": false,
        "type": "Polygon",
        "coordinates": [
          [
            [
              84.17115397518663,
              27.581423325963733
            ],
            [
              84.17205229047076,
              27.581423325963733
            ],
            [
              84.17205229047076,
              27.583219956531977
            ],
            [
              84.17295060575489,
              27.583219956531977
            ],
            [
              84.17295060575489,
              27.584118271816095
            ],
            [
              84.17115397518663,
              27.584118271816095
            ],
            [
              84.17115397518663,
              27.583219956531977
            ],
            [
              84.1702556599025,
              27.583219956531977
            ],
            [
              84.1702556599025,
              27.58232164124786
            ],
            [
              84.17115397518663,
              27.58232164124786
            ],
            [
              84.17115397518663,
              27.581423325963733
            ]
          ]
        ]
      },
      "id": "+294074+62804",
      "properties": {
        "count": 5,
        "label": 1,
        "segment": "Nepal",
        "sensor": "Sentinel-1 C-SAR GRD",
        "method": "VV/VH change detection with JRC water mask",
        "threshold_VV_dB": 3.0,
        "terrain_note": "Himalayan gorge reach; subject to radar layover/shadow"
      }
    },
    {
      "type": "Feature",
      "geometry": {
        "geodesic": false,
        "type": "Polygon",
        "coordinates": [
          [
            [
              84.17115397518663,
              27.5751351189749
            ],
            [
              84.17205229047076,
              27.5751351189749
            ],
            [
              84.17205229047076,
              27.576931749543135
            ],
            [
              84.17295060575489,
              27.576931749543135
            ],
            [
              84.17295060575489,
              27.57783006482726
            ],
            [
              84.17205229047076,
              27.57783006482726
            ],
            [
              84.17205229047076,
              27.57872838011138
            ],
            [
              84.1702556599025,
              27.57872838011138
            ],
            [
              84.1702556599025,
              27.57783006482726
            ],
            [
              84.17205229047076,
              27.57783006482726
            ],
            [
              84.17205229047076,
              27.576931749543135
            ],
            [
              84.17115397518663,
              27.576931749543135
            ],
            [
              84.17115397518663,
              27.5751351189749
            ]
          ]
        ]
      },
      "id": "+294074+62811",
      "properties": {
        "count": 5,
        "label": 1,
        "segment": "Nepal",
        "sensor": "Sentinel-1 C-SAR GRD",
        "method": "VV/VH change detection with JRC water mask",
        "threshold_VV_dB": 3.0,
        "terrain_note": "Himalayan gorge reach; subject to radar layover/shadow"
      }
    },
    {
      "type": "Feature",
      "geometry": {
        "geodesic": false,
        "type": "Polygon",
        "coordinates": [
          [
            [
              84.17834049745957,
              27.591304794089048
            ],
            [
              84.1792388127437,
              27.591304794089048
            ],
            [
              84.1792388127437,
              27.592203109373173
            ],
            [
              84.17834049745957,
              27.592203109373173
            ],
            [
              84.17834049745957,
              27.59310142465729
            ],
            [
              84.1774421821755,
              27.59310142465729
            ],
            [
              84.1774421821755,
              27.59399973994141
            ],
            [
              84.1747472363231,
              27.59399973994141
            ],
            [
              84.1747472363231,
              27.59310142465729
            ],
            [
              84.1774421821755,
              27.59310142465729
            ],
            [
              84.1774421821755,
              27.592203109373173
            ],
            [
              84.17834049745957,
              27.592203109373173
            ],
            [
              84.17834049745957,
              27.591304794089048
            ]
          ]
        ]
      },
      "id": "+294082+62793",
      "properties": {
        "count": 5,
        "label": 1,
        "segment": "Nepal",
        "sensor": "Sentinel-1 C-SAR GRD",
        "method": "VV/VH change detection with JRC water mask",
        "threshold_VV_dB": 3.0,
        "terrain_note": "Himalayan gorge reach; subject to radar layover/shadow"
      }
    },
    {
      "type": "Feature",
      "geometry": {
        "geodesic": false,
        "type": "Polygon",
        "coordinates": [
          [
            [
              84.18552701973258,
              27.59040647880493
            ],
            [
              84.18642533501665,
              27.59040647880493
            ],
            [
              84.18642533501665,
              27.591304794089048
            ],
            [
              84.18552701973258,
              27.591304794089048
            ],
            [
              84.18552701973258,
              27.592203109373173
            ],
            [
              84.18193375859605,
              27.592203109373173
            ],
            [
              84.18193375859605,
              27.591304794089048
            ],
            [
              84.18552701973258,
              27.591304794089048
            ],
            [
              84.18552701973258,
              27.59040647880493
            ]
          ]
        ]
      },
      "id": "+294090+62794",
      "properties": {
        "count": 5,
        "label": 1,
        "segment": "Nepal",
        "sensor": "Sentinel-1 C-SAR GRD",
        "method": "VV/VH change detection with JRC water mask",
        "threshold_VV_dB": 3.0,
        "terrain_note": "Himalayan gorge reach; subject to radar layover/shadow"
      }
    },
    {
      "type": "Feature",
      "geometry": {
        "geodesic": false,
        "type": "Polygon",
        "coordinates": [
          [
            [
              84.21786636996083,
              27.621847513749117
            ],
            [
              84.21876468524496,
              27.621847513749117
            ],
            [
              84.21876468524496,
              27.622745829033235
            ],
            [
              84.22056131581323,
              27.622745829033235
            ],
            [
              84.22056131581323,
              27.623644144317353
            ],
            [
              84.21876468524496,
              27.623644144317353
            ],
            [
              84.21876468524496,
              27.62544077488559
            ],
            [
              84.21786636996083,
              27.62544077488559
            ],
            [
              84.21786636996083,
              27.62454245960147
            ],
            [
              84.21696805467676,
              27.62454245960147
            ],
            [
              84.21696805467676,
              27.623644144317353
            ],
            [
              84.21786636996083,
              27.623644144317353
            ],
            [
              84.21786636996083,
              27.621847513749117
            ]
          ]
        ]
      },
      "id": "+294126+62759",
      "properties": {
        "count": 7,
        "label": 1,
        "segment": "Nepal",
        "sensor": "Sentinel-1 C-SAR GRD",
        "method": "VV/VH change detection with JRC water mask",
        "threshold_VV_dB": 3.0,
        "terrain_note": "Himalayan gorge reach; subject to radar layover/shadow"
      }
    },
    {
      "type": "Feature",
      "geometry": {
        "geodesic": false,
        "type": "Polygon",
        "coordinates": [
          [
            [
              84.2241545769497,
              27.621847513749117
            ],
            [
              84.22505289223383,
              27.621847513749117
            ],
            [
              84.22505289223383,
              27.622745829033235
            ],
            [
              84.2241545769497,
              27.622745829033235
            ],
            [
              84.2241545769497,
              27.62454245960147
            ],
            [
              84.22505289223383,
              27.62454245960147
            ],
            [
              84.22505289223383,
              27.62544077488559
            ],
            [
              84.2241545769497,
              27.62544077488559
            ],
            [
              84.2241545769497,
              27.62454245960147
            ],
            [
              84.22325626166557,
              27.62454245960147
            ],
            [
              84.22325626166557,
              27.622745829033235
            ],
            [
              84.2241545769497,
              27.622745829033235
            ],
            [
              84.2241545769497,
              27.621847513749117
            ]
          ]
        ]
      },
      "id": "+294133+62759",
      "properties": {
        "count": 4,
        "label": 1,
        "segment": "Nepal",
        "sensor": "Sentinel-1 C-SAR GRD",
        "method": "VV/VH change detection with JRC water mask",
        "threshold_VV_dB": 3.0,
        "terrain_note": "Himalayan gorge reach; subject to radar layover/shadow"
      }
    },
    {
      "type": "Feature",
      "geometry": {
        "geodesic": false,
        "type": "Polygon",
        "coordinates": [
          [
            [
              84.24122256734793,
              27.634423927726786
            ],
            [
              84.24212088263207,
              27.634423927726786
            ],
            [
              84.24212088263207,
              27.635322243010904
            ],
            [
              84.2430191979162,
              27.635322243010904
            ],
            [
              84.2430191979162,
              27.63622055829503
            ],
            [
              84.24481582848446,
              27.63622055829503
            ],
            [
              84.24481582848446,
              27.637118873579148
            ],
            [
              84.24571414376854,
              27.637118873579148
            ],
            [
              84.24571414376854,
              27.638017188863266
            ],
            [
              84.24391751320033,
              27.638017188863266
            ],
            [
              84.24391751320033,
              27.637118873579148
            ],
            [
              84.2430191979162,
              27.637118873579148
            ],
            [
              84.2430191979162,
              27.63622055829503
            ],
            [
              84.24212088263207,
              27.63622055829503
            ],
            [
              84.24212088263207,
              27.637118873579148
            ],
            [
              84.24122256734793,
              27.637118873579148
            ],
            [
              84.24122256734793,
              27.63622055829503
            ],
            [
              84.23942593677972,
              27.63622055829503
            ],
            [
              84.23942593677972,
              27.635322243010904
            ],
            [
              84.24122256734793,
              27.635322243010904
            ],
            [
              84.24122256734793,
              27.634423927726786
            ]
          ],
          [
            [
              84.24212088263207,
              27.635322243010904
            ],
            [
              84.24212088263207,
              27.63622055829503
            ],
            [
              84.24122256734793,
              27.63622055829503
            ],
            [
              84.24122256734793,
              27.635322243010904
            ],
            [
              84.24212088263207,
              27.635322243010904
            ]
          ]
        ]
      },
      "id": "+294152+62745",
      "properties": {
        "count": 9,
        "label": 1,
        "segment": "Nepal",
        "sensor": "Sentinel-1 C-SAR GRD",
        "method": "VV/VH change detection with JRC water mask",
        "threshold_VV_dB": 3.0,
        "terrain_note": "Himalayan gorge reach; subject to radar layover/shadow"
      }
    },
    {
      "type": "Feature",
      "geometry": {
        "geodesic": false,
        "type": "Polygon",
        "coordinates": [
          [
            [
              84.24840908962094,
              27.635322243010904
            ],
            [
              84.25020572018914,
              27.635322243010904
            ],
            [
              84.25020572018914,
              27.63622055829503
            ],
            [
              84.25200235075741,
              27.63622055829503
            ],
            [
              84.25200235075741,
              27.637118873579148
            ],
            [
              84.25290066604154,
              27.637118873579148
            ],
            [
              84.25290066604154,
              27.638915504147384
            ],
            [
              84.25200235075741,
              27.638915504147384
            ],
            [
              84.25200235075741,
              27.638017188863266
            ],
            [
              84.25110403547328,
              27.638017188863266
            ],
            [
              84.25110403547328,
              27.637118873579148
            ],
            [
              84.24930740490501,
              27.637118873579148
            ],
            [
              84.24930740490501,
              27.63622055829503
            ],
            [
              84.24840908962094,
              27.63622055829503
            ],
            [
              84.24840908962094,
              27.635322243010904
            ]
          ]
        ]
      },
      "id": "+294161+62744",
      "properties": {
        "count": 8,
        "label": 1,
        "segment": "Nepal",
        "sensor": "Sentinel-1 C-SAR GRD",
        "method": "VV/VH change detection with JRC water mask",
        "threshold_VV_dB": 3.0,
        "terrain_note": "Himalayan gorge reach; subject to radar layover/shadow"
      }
    },
    {
      "type": "Feature",
      "geometry": {
        "geodesic": false,
        "type": "Polygon",
        "coordinates": [
          [
            [
              84.27985012456512,
              27.664966647386855
            ],
            [
              84.28074843984925,
              27.664966647386855
            ],
            [
              84.28074843984925,
              27.665864962670973
            ],
            [
              84.28164675513332,
              27.665864962670973
            ],
            [
              84.28164675513332,
              27.66676327795509
            ],
            [
              84.28254507041746,
              27.66676327795509
            ],
            [
              84.28254507041746,
              27.668559908523328
            ],
            [
              84.28164675513332,
              27.668559908523328
            ],
            [
              84.28164675513332,
              27.66676327795509
            ],
            [
              84.27985012456512,
              27.66676327795509
            ],
            [
              84.27985012456512,
              27.664966647386855
            ]
          ]
        ]
      },
      "id": "+294195+62711",
      "properties": {
        "count": 5,
        "label": 1,
        "segment": "Nepal",
        "sensor": "Sentinel-1 C-SAR GRD",
        "method": "VV/VH change detection with JRC water mask",
        "threshold_VV_dB": 3.0,
        "terrain_note": "Himalayan gorge reach; subject to radar layover/shadow"
      }
    },
    {
      "type": "Feature",
      "geometry": {
        "geodesic": false,
        "type": "Polygon",
        "coordinates": [
          [
            [
              84.29512148439514,
              27.66676327795509
            ],
            [
              84.29871474553161,
              27.66676327795509
            ],
            [
              84.29871474553161,
              27.66766159323921
            ],
            [
              84.30140969138395,
              27.66766159323921
            ],
            [
              84.30140969138395,
              27.668559908523328
            ],
            [
              84.30320632195222,
              27.668559908523328
            ],
            [
              84.30320632195222,
              27.67035653909157
            ],
            [
              84.30410463723635,
              27.67035653909157
            ],
            [
              84.30410463723635,
              27.672153169659808
            ],
            [
              84.30590126780456,
              27.672153169659808
            ],
            [
              84.30590126780456,
              27.675746430796288
            ],
            [
              84.30500295252043,
              27.675746430796288
            ],
            [
              84.30500295252043,
              27.673051484943926
            ],
            [
              84.30140969138395,
              27.673051484943926
            ],
            [
              84.30140969138395,
              27.672153169659808
            ],
            [
              84.30051137609988,
              27.672153169659808
            ],
            [
              84.30051137609988,
              27.67125485437569
            ],
            [
              84.30230800666808,
              27.67125485437569
            ],
            [
              84.30230800666808,
              27.67035653909157
            ],
            [
              84.30051137609988,
              27.67035653909157
            ],
            [
              84.30051137609988,
              27.669458223807446
            ],
            [
              84.29691811496335,
              27.669458223807446
            ],
            [
              84.29691811496335,
              27.668559908523328
            ],
            [
              84.29601979967927,
              27.668559908523328
            ],
            [
              84.29601979967927,
              27.66766159323921
            ],
            [
              84.29512148439514,
              27.66766159323921
            ],
            [
              84.29512148439514,
              27.66676327795509
            ]
          ]
        ]
      },
      "id": "+294215+62709",
      "properties": {
        "count": 34,
        "label": 1,
        "segment": "Nepal",
        "sensor": "Sentinel-1 C-SAR GRD",
        "method": "VV/VH change detection with JRC water mask",
        "threshold_VV_dB": 3.0,
        "terrain_note": "Himalayan gorge reach; subject to radar layover/shadow"
      }
    },
    {
      "type": "Feature",
      "geometry": {
        "geodesic": false,
        "type": "Polygon",
        "coordinates": [
          [
            [
              84.31398610536164,
              27.67484811551217
            ],
            [
              84.31488442064577,
              27.67484811551217
            ],
            [
              84.31488442064577,
              27.676644746080406
            ],
            [
              84.3157827359299,
              27.676644746080406
            ],
            [
              84.3157827359299,
              27.678441376648642
            ],
            [
              84.31398610536164,
              27.678441376648642
            ],
            [
              84.31398610536164,
              27.677543061364524
            ],
            [
              84.31488442064577,
              27.677543061364524
            ],
            [
              84.31488442064577,
              27.676644746080406
            ],
            [
              84.31398610536164,
              27.676644746080406
            ],
            [
              84.31398610536164,
              27.67484811551217
            ]
          ]
        ]
      },
      "id": "+294233+62700",
      "properties": {
        "count": 5,
        "label": 1,
        "segment": "Nepal",
        "sensor": "Sentinel-1 C-SAR GRD",
        "method": "VV/VH change detection with JRC water mask",
        "threshold_VV_dB": 3.0,
        "terrain_note": "Himalayan gorge reach; subject to radar layover/shadow"
      }
    },
    {
      "type": "Feature",
      "geometry": {
        "geodesic": false,
        "type": "Polygon",
        "coordinates": [
          [
            [
              84.31398610536164,
              27.549982291019553
            ],
            [
              84.3157827359299,
              27.549982291019553
            ],
            [
              84.3157827359299,
              27.55088060630367
            ],
            [
              84.31488442064577,
              27.55088060630367
            ],
            [
              84.31488442064577,
              27.55177892158779
            ],
            [
              84.3130877900775,
              27.55177892158779
            ],
            [
              84.3130877900775,
              27.55088060630367
            ],
            [
              84.31398610536164,
              27.55088060630367
            ],
            [
              84.31398610536164,
              27.549982291019553
            ]
          ]
        ]
      },
      "id": "+294234+62839",
      "properties": {
        "count": 4,
        "label": 1,
        "segment": "Nepal",
        "sensor": "Sentinel-1 C-SAR GRD",
        "method": "VV/VH change detection with JRC water mask",
        "threshold_VV_dB": 3.0,
        "terrain_note": "Himalayan gorge reach; subject to radar layover/shadow"
      }
    },
    {
      "type": "Feature",
      "geometry": {
        "geodesic": false,
        "type": "Polygon",
        "coordinates": [
          [
            [
              84.39752942678476,
              27.567948596701946
            ],
            [
              84.39932605735302,
              27.567948596701946
            ],
            [
              84.39932605735302,
              27.568846911986064
            ],
            [
              84.39752942678476,
              27.568846911986064
            ],
            [
              84.39752942678476,
              27.569745227270182
            ],
            [
              84.39483448093242,
              27.569745227270182
            ],
            [
              84.39483448093242,
              27.568846911986064
            ],
            [
              84.39752942678476,
              27.568846911986064
            ],
            [
              84.39752942678476,
              27.567948596701946
            ]
          ]
        ]
      },
      "id": "+294327+62819",
      "properties": {
        "count": 5,
        "label": 1,
        "segment": "Nepal",
        "sensor": "Sentinel-1 C-SAR GRD",
        "method": "VV/VH change detection with JRC water mask",
        "threshold_VV_dB": 3.0,
        "terrain_note": "Himalayan gorge reach; subject to radar layover/shadow"
      }
    },
    {
      "type": "Feature",
      "geometry": {
        "geodesic": false,
        "type": "Polygon",
        "coordinates": [
          [
            [
              84.6490577063382,
              27.57154185783842
            ],
            [
              84.6535492827588,
              27.57154185783842
            ],
            [
              84.6535492827588,
              27.572440173122544
            ],
            [
              84.65444759804294,
              27.572440173122544
            ],
            [
              84.65444759804294,
              27.573338488406662
            ],
            [
              84.6517526521906,
              27.573338488406662
            ],
            [
              84.6517526521906,
              27.572440173122544
            ],
            [
              84.6490577063382,
              27.572440173122544
            ],
            [
              84.6490577063382,
              27.57154185783842
            ]
          ]
        ]
      },
      "id": "+294610+62815",
      "properties": {
        "count": 8,
        "label": 1,
        "segment": "Nepal",
        "sensor": "Sentinel-1 C-SAR GRD",
        "method": "VV/VH change detection with JRC water mask",
        "threshold_VV_dB": 3.0,
        "terrain_note": "Himalayan gorge reach; subject to radar layover/shadow"
      }
    },
    {
      "type": "Feature",
      "geometry": {
        "geodesic": false,
        "type": "Polygon",
        "coordinates": [
          [
            [
              84.80177130463855,
              27.81408698455069
            ],
            [
              84.80266961992268,
              27.81408698455069
            ],
            [
              84.80266961992268,
              27.815883615118935
            ],
            [
              84.80356793520676,
              27.815883615118935
            ],
            [
              84.80356793520676,
              27.81498529983481
            ],
            [
              84.80446625049089,
              27.81498529983481
            ],
            [
              84.80446625049089,
              27.816781930403053
            ],
            [
              84.80266961992268,
              27.816781930403053
            ],
            [
              84.80266961992268,
              27.815883615118935
            ],
            [
              84.80177130463855,
              27.815883615118935
            ],
            [
              84.80177130463855,
              27.81408698455069
            ]
          ]
        ]
      },
      "id": "+294776+62545",
      "properties": {
        "count": 5,
        "label": 1,
        "segment": "Nepal",
        "sensor": "Sentinel-1 C-SAR GRD",
        "method": "VV/VH change detection with JRC water mask",
        "threshold_VV_dB": 3.0,
        "terrain_note": "Himalayan gorge reach; subject to radar layover/shadow"
      }
    },
    {
      "type": "Feature",
      "geometry": {
        "geodesic": false,
        "type": "Polygon",
        "coordinates": [
          [
            [
              85.0200619186796,
              27.8419347583584
            ],
            [
              85.02096023396368,
              27.8419347583584
            ],
            [
              85.02096023396368,
              27.843731388926635
            ],
            [
              85.02185854924781,
              27.843731388926635
            ],
            [
              85.02185854924781,
              27.844629704210753
            ],
            [
              85.01916360339547,
              27.844629704210753
            ],
            [
              85.01916360339547,
              27.843731388926635
            ],
            [
              85.0200619186796,
              27.843731388926635
            ],
            [
              85.0200619186796,
              27.8419347583584
            ]
          ]
        ]
      },
      "id": "+295019+62514",
      "properties": {
        "count": 5,
        "label": 1,
        "segment": "Nepal",
        "sensor": "Sentinel-1 C-SAR GRD",
        "method": "VV/VH change detection with JRC water mask",
        "threshold_VV_dB": 3.0,
        "terrain_note": "Himalayan gorge reach; subject to radar layover/shadow"
      }
    },
    {
      "type": "Feature",
      "geometry": {
        "geodesic": false,
        "type": "Polygon",
        "coordinates": [
          [
            [
              85.02904507152076,
              27.851816226483713
            ],
            [
              85.02994338680489,
              27.851816226483713
            ],
            [
              85.02994338680489,
              27.85271454176783
            ],
            [
              85.03263833265729,
              27.85271454176783
            ],
            [
              85.03263833265729,
              27.85361285705195
            ],
            [
              85.02994338680489,
              27.85361285705195
            ],
            [
              85.02994338680489,
              27.85271454176783
            ],
            [
              85.02904507152076,
              27.85271454176783
            ],
            [
              85.02904507152076,
              27.851816226483713
            ]
          ]
        ]
      },
      "id": "+295029+62503",
      "properties": {
        "count": 4,
        "label": 1,
        "segment": "Nepal",
        "sensor": "Sentinel-1 C-SAR GRD",
        "method": "VV/VH change detection with JRC water mask",
        "threshold_VV_dB": 3.0,
        "terrain_note": "Himalayan gorge reach; subject to radar layover/shadow"
      }
    },
    {
      "type": "Feature",
      "geometry": {
        "geodesic": false,
        "type": "Polygon",
        "coordinates": [
          [
            [
              85.0389265396461,
              27.85271454176783
            ],
            [
              85.03982485493023,
              27.85271454176783
            ],
            [
              85.03982485493023,
              27.85630780290431
            ],
            [
              85.0389265396461,
              27.85630780290431
            ],
            [
              85.0389265396461,
              27.85271454176783
            ]
          ]
        ]
      },
      "id": "+295040+62502",
      "properties": {
        "count": 4,
        "label": 1,
        "segment": "Nepal",
        "sensor": "Sentinel-1 C-SAR GRD",
        "method": "VV/VH change detection with JRC water mask",
        "threshold_VV_dB": 3.0,
        "terrain_note": "Himalayan gorge reach; subject to radar layover/shadow"
      }
    },
    {
      "type": "Feature",
      "geometry": {
        "geodesic": false,
        "type": "Polygon",
        "coordinates": [
          [
            [
              85.56713592670835,
              28.281210932292844
            ],
            [
              85.56893255727661,
              28.281210932292844
            ],
            [
              85.56893255727661,
              28.28210924757696
            ],
            [
              85.57162750312895,
              28.28210924757696
            ],
            [
              85.57162750312895,
              28.28300756286108
            ],
            [
              85.56893255727661,
              28.28300756286108
            ],
            [
              85.56893255727661,
              28.28210924757696
            ],
            [
              85.56713592670835,
              28.28210924757696
            ],
            [
              85.56713592670835,
              28.281210932292844
            ]
          ]
        ]
      },
      "id": "+295629+62025",
      "properties": {
        "count": 5,
        "label": 1,
        "segment": "Nepal",
        "sensor": "Sentinel-1 C-SAR GRD",
        "method": "VV/VH change detection with JRC water mask",
        "threshold_VV_dB": 3.0,
        "terrain_note": "Himalayan gorge reach; subject to radar layover/shadow"
      }
    },
    {
      "type": "Feature",
      "geometry": {
        "geodesic": false,
        "type": "Polygon",
        "coordinates": [
          [
            [
              85.70457816517867,
              27.64520371113622
            ],
            [
              85.7054764804628,
              27.64520371113622
            ],
            [
              85.7054764804628,
              27.650593602840942
            ],
            [
              85.70457816517867,
              27.650593602840942
            ],
            [
              85.70457816517867,
              27.64520371113622
            ]
          ]
        ]
      },
      "id": "+295781+62733",
      "properties": {
        "count": 6,
        "label": 1,
        "segment": "Nepal",
        "sensor": "Sentinel-1 C-SAR GRD",
        "method": "VV/VH change detection with JRC water mask",
        "threshold_VV_dB": 3.0,
        "terrain_note": "Himalayan gorge reach; subject to radar layover/shadow"
      }
    },
    {
      "type": "Feature",
      "geometry": {
        "geodesic": false,
        "type": "Polygon",
        "coordinates": [
          [
            [
              85.78273159489706,
              28.02698770688702
            ],
            [
              85.78362991018119,
              28.02698770688702
            ],
            [
              85.78362991018119,
              28.02788602217114
            ],
            [
              85.78452822546532,
              28.02788602217114
            ],
            [
              85.78452822546532,
              28.028784337455257
            ],
            [
              85.78362991018119,
              28.028784337455257
            ],
            [
              85.78362991018119,
              28.029682652739375
            ],
            [
              85.78273159489706,
              28.029682652739375
            ],
            [
              85.78273159489706,
              28.02698770688702
            ]
          ]
        ]
      },
      "id": "+295868+62308",
      "properties": {
        "count": 4,
        "label": 1,
        "segment": "Nepal",
        "sensor": "Sentinel-1 C-SAR GRD",
        "method": "VV/VH change detection with JRC water mask",
        "threshold_VV_dB": 3.0,
        "terrain_note": "Himalayan gorge reach; subject to radar layover/shadow"
      }
    }
  ]
}